STARLINK-35736          
1 66230U 25244AA  25327.42390171  .00091467  00000+0  16332-2 0  9993
2 66230  53.1597   6.7719 0001481  82.2712 277.8465 15.49313418  5345
STARLINK-35735          
1 66231U 25244AB  25327.42356247  .00075517  00000+0  13516-2 0  9999
2 66231  53.1596   6.7694 0001488  63.0302 297.0859 15.49332890  5342
STARLINK-35753          
1 66232U 25244AC  25327.35870949  .00091500  00000+0  16326-2 0  9994
2 66232  53.1598   7.0767 0001372  56.9438 303.1702 15.49334225  5332
STARLINK-35626          
1 66233U 25244AD  25327.35836451  .00034466  00000+0  62444-3 0  9996
2 66233  53.1598   7.0735 0001236  83.3806 276.7344 15.49334998  5334
STARLINK-35537          
1 66234U 25245A   25327.50002315  .00034385  00000+0  86720-3 0  9992
2 66234  53.1599  60.3459 0001614  80.1172 265.6118 15.39567562  5017
STARLINK-35541          
1 66235U 25245B   25327.50002315  .00031773  00000+0  80229-3 0  9999
2 66235  53.1600  60.3420 0001670  72.0537 275.5048 15.39570146  4963
STARLINK-35454          
1 66236U 25245C   25327.50002315 -.02072297  00000+0 -52118-1 0  9994
2 66236  53.1604  60.3024 0000901  89.9675 276.8893 15.43027822  4846
STARLINK-35557          
1 66237U 25245D   25327.50002315 -.02051193  00000+0 -51553-1 0  9999
2 66237  53.1601  60.2979 0000982  85.9476 282.7734 15.43008756  5011
STARLINK-35556          
1 66238U 25245E   25327.50002315 -.02070538  00000+0 -47231-1 0  9992
2 66238  53.1602  60.2718 0000771  91.8004 289.9347 15.45868850  5013
STARLINK-35554          
1 66239U 25245F   25327.50002315 -.02060893  00000+0 -47008-1 0  9998
2 66239  53.1604  60.2681 0000761  85.2872 298.3366 15.45853717  4845
STARLINK-35546          
1 66240U 25245G   25327.50002315 -.02110598  00000+0 -43675-1 0  9994
2 66240  53.1601  60.2551 0001056  90.0796 300.1154 15.48716653  5014
STARLINK-35497          
1 66241U 25245H   25327.50002315 -.02107766  00000+0 -43629-1 0  9997
2 66241  53.1602  60.2515 0001135  77.3776 314.7286 15.48703102  4965
