CCSDS_OMM_VERS = 2.0
CREATION_DATE  = 
ORIGINATOR     = 

OBJECT_NAME    = STARLINK-35736
OBJECT_ID      = 2025-244AA
CENTER_NAME    = EARTH
REF_FRAME      = TEME
TIME_SYSTEM    = UTC
MEAN_ELEMENT_THEORY = SGP/SGP4

EPOCH          = 2025-11-23T10:10:25.107744
MEAN_MOTION    = 15.49313418
ECCENTRICITY   = .0001481
INCLINATION    = 53.1597
RA_OF_ASC_NODE = 6.7719
ARG_OF_PERICENTER = 82.2712
MEAN_ANOMALY   = 277.8465

EPHEMERIS_TYPE = 0
CLASSIFICATION_TYPE = U
NORAD_CAT_ID   = 66230
ELEMENT_SET_NO = 999
REV_AT_EPOCH   = 534
BSTAR          = .16332E-2
MEAN_MOTION_DOT = .91467E-3
MEAN_MOTION_DDOT = 0

CCSDS_OMM_VERS = 2.0
CREATION_DATE  = 
ORIGINATOR     = 

OBJECT_NAME    = STARLINK-35735
OBJECT_ID      = 2025-244AB
CENTER_NAME    = EARTH
REF_FRAME      = TEME
TIME_SYSTEM    = UTC
MEAN_ELEMENT_THEORY = SGP/SGP4

EPOCH          = 2025-11-23T10:09:55.797408
MEAN_MOTION    = 15.49332890
ECCENTRICITY   = .0001488
INCLINATION    = 53.1596
RA_OF_ASC_NODE = 6.7694
ARG_OF_PERICENTER = 63.0302
MEAN_ANOMALY   = 297.0859

EPHEMERIS_TYPE = 0
CLASSIFICATION_TYPE = U
NORAD_CAT_ID   = 66231
ELEMENT_SET_NO = 999
REV_AT_EPOCH   = 534
BSTAR          = .13516E-2
MEAN_MOTION_DOT = .75517E-3
MEAN_MOTION_DDOT = 0

CCSDS_OMM_VERS = 2.0
CREATION_DATE  = 
ORIGINATOR     = 

OBJECT_NAME    = STARLINK-35753
OBJECT_ID      = 2025-244AC
CENTER_NAME    = EARTH
REF_FRAME      = TEME
TIME_SYSTEM    = UTC
MEAN_ELEMENT_THEORY = SGP/SGP4

EPOCH          = 2025-11-23T08:36:32.499936
MEAN_MOTION    = 15.49334225
ECCENTRICITY   = .0001372
INCLINATION    = 53.1598
RA_OF_ASC_NODE = 7.0767
ARG_OF_PERICENTER = 56.9438
MEAN_ANOMALY   = 303.1702

EPHEMERIS_TYPE = 0
CLASSIFICATION_TYPE = U
NORAD_CAT_ID   = 66232
ELEMENT_SET_NO = 999
REV_AT_EPOCH   = 533
BSTAR          = .16326E-2
MEAN_MOTION_DOT = .915E-3
MEAN_MOTION_DDOT = 0

CCSDS_OMM_VERS = 2.0
CREATION_DATE  = 
ORIGINATOR     = 

OBJECT_NAME    = STARLINK-35626
OBJECT_ID      = 2025-244AD
CENTER_NAME    = EARTH
REF_FRAME      = TEME
TIME_SYSTEM    = UTC
MEAN_ELEMENT_THEORY = SGP/SGP4

EPOCH          = 2025-11-23T08:36:02.693664
MEAN_MOTION    = 15.49334998
ECCENTRICITY   = .0001236
INCLINATION    = 53.1598
RA_OF_ASC_NODE = 7.0735
ARG_OF_PERICENTER = 83.3806
MEAN_ANOMALY   = 276.7344

EPHEMERIS_TYPE = 0
CLASSIFICATION_TYPE = U
NORAD_CAT_ID   = 66233
ELEMENT_SET_NO = 999
REV_AT_EPOCH   = 533
BSTAR          = .62444E-3
MEAN_MOTION_DOT = .34466E-3
MEAN_MOTION_DDOT = 0

CCSDS_OMM_VERS = 2.0
CREATION_DATE  = 
ORIGINATOR     = 

OBJECT_NAME    = STARLINK-35537
OBJECT_ID      = 2025-245A
CENTER_NAME    = EARTH
REF_FRAME      = TEME
TIME_SYSTEM    = UTC
MEAN_ELEMENT_THEORY = SGP/SGP4

EPOCH          = 2025-11-23T12:00:02.000160
MEAN_MOTION    = 15.39567562
ECCENTRICITY   = .0001614
INCLINATION    = 53.1599
RA_OF_ASC_NODE = 60.3459
ARG_OF_PERICENTER = 80.1172
MEAN_ANOMALY   = 265.6118

EPHEMERIS_TYPE = 0
CLASSIFICATION_TYPE = U
NORAD_CAT_ID   = 66234
ELEMENT_SET_NO = 999
REV_AT_EPOCH   = 501
BSTAR          = .8672E-3
MEAN_MOTION_DOT = .34385E-3
MEAN_MOTION_DDOT = 0

CCSDS_OMM_VERS = 2.0
CREATION_DATE  = 
ORIGINATOR     = 

OBJECT_NAME    = STARLINK-35541
OBJECT_ID      = 2025-245B
CENTER_NAME    = EARTH
REF_FRAME      = TEME
TIME_SYSTEM    = UTC
MEAN_ELEMENT_THEORY = SGP/SGP4

EPOCH          = 2025-11-23T12:00:02.000160
MEAN_MOTION    = 15.39570146
ECCENTRICITY   = .000167
INCLINATION    = 53.1600
RA_OF_ASC_NODE = 60.3420
ARG_OF_PERICENTER = 72.0537
MEAN_ANOMALY   = 275.5048

EPHEMERIS_TYPE = 0
CLASSIFICATION_TYPE = U
NORAD_CAT_ID   = 66235
ELEMENT_SET_NO = 999
REV_AT_EPOCH   = 496
BSTAR          = .80229E-3
MEAN_MOTION_DOT = .31773E-3
MEAN_MOTION_DDOT = 0

CCSDS_OMM_VERS = 2.0
CREATION_DATE  = 
ORIGINATOR     = 

OBJECT_NAME    = STARLINK-35454
OBJECT_ID      = 2025-245C
CENTER_NAME    = EARTH
REF_FRAME      = TEME
TIME_SYSTEM    = UTC
MEAN_ELEMENT_THEORY = SGP/SGP4

EPOCH          = 2025-11-23T12:00:02.000160
MEAN_MOTION    = 15.43027822
ECCENTRICITY   = .0000901
INCLINATION    = 53.1604
RA_OF_ASC_NODE = 60.3024
ARG_OF_PERICENTER = 89.9675
MEAN_ANOMALY   = 276.8893

EPHEMERIS_TYPE = 0
CLASSIFICATION_TYPE = U
NORAD_CAT_ID   = 66236
ELEMENT_SET_NO = 999
REV_AT_EPOCH   = 484
BSTAR          = -.52118E-1
MEAN_MOTION_DOT = -.2072297E-1
MEAN_MOTION_DDOT = 0

CCSDS_OMM_VERS = 2.0
CREATION_DATE  = 
ORIGINATOR     = 

OBJECT_NAME    = STARLINK-35557
OBJECT_ID      = 2025-245D
CENTER_NAME    = EARTH
REF_FRAME      = TEME
TIME_SYSTEM    = UTC
MEAN_ELEMENT_THEORY = SGP/SGP4

EPOCH          = 2025-11-23T12:00:02.000160
MEAN_MOTION    = 15.43008756
ECCENTRICITY   = .0000982
INCLINATION    = 53.1601
RA_OF_ASC_NODE = 60.2979
ARG_OF_PERICENTER = 85.9476
MEAN_ANOMALY   = 282.7734

EPHEMERIS_TYPE = 0
CLASSIFICATION_TYPE = U
NORAD_CAT_ID   = 66237
ELEMENT_SET_NO = 999
REV_AT_EPOCH   = 501
BSTAR          = -.51553E-1
MEAN_MOTION_DOT = -.2051193E-1
MEAN_MOTION_DDOT = 0

CCSDS_OMM_VERS = 2.0
CREATION_DATE  = 
ORIGINATOR     = 

OBJECT_NAME    = STARLINK-35556
OBJECT_ID      = 2025-245E
CENTER_NAME    = EARTH
REF_FRAME      = TEME
TIME_SYSTEM    = UTC
MEAN_ELEMENT_THEORY = SGP/SGP4

EPOCH          = 2025-11-23T12:00:02.000160
MEAN_MOTION    = 15.45868850
ECCENTRICITY   = .0000771
INCLINATION    = 53.1602
RA_OF_ASC_NODE = 60.2718
ARG_OF_PERICENTER = 91.8004
MEAN_ANOMALY   = 289.9347

EPHEMERIS_TYPE = 0
CLASSIFICATION_TYPE = U
NORAD_CAT_ID   = 66238
ELEMENT_SET_NO = 999
REV_AT_EPOCH   = 501
BSTAR          = -.47231E-1
MEAN_MOTION_DOT = -.2070538E-1
MEAN_MOTION_DDOT = 0

CCSDS_OMM_VERS = 2.0
CREATION_DATE  = 
ORIGINATOR     = 

OBJECT_NAME    = STARLINK-35554
OBJECT_ID      = 2025-245F
CENTER_NAME    = EARTH
REF_FRAME      = TEME
TIME_SYSTEM    = UTC
MEAN_ELEMENT_THEORY = SGP/SGP4

EPOCH          = 2025-11-23T12:00:02.000160
MEAN_MOTION    = 15.45853717
ECCENTRICITY   = .0000761
INCLINATION    = 53.1604
RA_OF_ASC_NODE = 60.2681
ARG_OF_PERICENTER = 85.2872
MEAN_ANOMALY   = 298.3366

EPHEMERIS_TYPE = 0
CLASSIFICATION_TYPE = U
NORAD_CAT_ID   = 66239
ELEMENT_SET_NO = 999
REV_AT_EPOCH   = 484
BSTAR          = -.47008E-1
MEAN_MOTION_DOT = -.2060893E-1
MEAN_MOTION_DDOT = 0

CCSDS_OMM_VERS = 2.0
CREATION_DATE  = 
ORIGINATOR     = 

OBJECT_NAME    = STARLINK-35546
OBJECT_ID      = 2025-245G
CENTER_NAME    = EARTH
REF_FRAME      = TEME
TIME_SYSTEM    = UTC
MEAN_ELEMENT_THEORY = SGP/SGP4

EPOCH          = 2025-11-23T12:00:02.000160
MEAN_MOTION    = 15.48716653
ECCENTRICITY   = .0001056
INCLINATION    = 53.1601
RA_OF_ASC_NODE = 60.2551
ARG_OF_PERICENTER = 90.0796
MEAN_ANOMALY   = 300.1154

EPHEMERIS_TYPE = 0
CLASSIFICATION_TYPE = U
NORAD_CAT_ID   = 66240
ELEMENT_SET_NO = 999
REV_AT_EPOCH   = 501
BSTAR          = -.43675E-1
MEAN_MOTION_DOT = -.2110598E-1
MEAN_MOTION_DDOT = 0

CCSDS_OMM_VERS = 2.0
CREATION_DATE  = 
ORIGINATOR     = 

OBJECT_NAME    = STARLINK-35497
OBJECT_ID      = 2025-245H
CENTER_NAME    = EARTH
REF_FRAME      = TEME
TIME_SYSTEM    = UTC
MEAN_ELEMENT_THEORY = SGP/SGP4

EPOCH          = 2025-11-23T12:00:02.000160
MEAN_MOTION    = 15.48703102
ECCENTRICITY   = .0001135
INCLINATION    = 53.1602
RA_OF_ASC_NODE = 60.2515
ARG_OF_PERICENTER = 77.3776
MEAN_ANOMALY   = 314.7286

EPHEMERIS_TYPE = 0
CLASSIFICATION_TYPE = U
NORAD_CAT_ID   = 66241
ELEMENT_SET_NO = 999
REV_AT_EPOCH   = 496
BSTAR          = -.43629E-1
MEAN_MOTION_DOT = -.2107766E-1
MEAN_MOTION_DDOT = 0

